{
    "links": {
        "self": "http://www.neowsapp.com/rest/v1/neo/54016217?api_key=iIulBulltgU6a56xZRHN4H3l9WmuAYTsLGpBGhQ2"
    },
    "id": "54016217",
    "neo_reference_id": "54016217",
    "name": "(2020 FZ)",
    "designation": "2020 FZ",
    "nasa_jpl_url": "http://ssd.jpl.nasa.gov/sbdb.cgi?sstr=54016217",
    "absolute_magnitude_h": 25.31,
    "estimated_diameter": {
        "kilometers": {
            "estimated_diameter_min": 0.0230438467,
            "estimated_diameter_max": 0.0515276076
        },
        "meters": {
            "estimated_diameter_min": 23.0438466577,
            "estimated_diameter_max": 51.5276075896
        },
        "miles": {
            "estimated_diameter_min": 0.014318778,
            "estimated_diameter_max": 0.0320177611
        },
        "feet": {
            "estimated_diameter_min": 75.6031738683,
            "estimated_diameter_max": 169.0538360842
        }
    },
    "is_potentially_hazardous_asteroid": false,
    "close_approach_data": [
        {
            "close_approach_date": "2020-03-05",
            "close_approach_date_full": "2020-Mar-05 17:12",
            "epoch_date_close_approach": 1583428320000,
            "relative_velocity": {
                "kilometers_per_second": "6.852523296",
                "kilometers_per_hour": "24669.083865682",
                "miles_per_hour": "15328.4093608733"
            },
            "miss_distance": {
                "astronomical": "0.108662156",
                "lunar": "42.269578684",
                "kilometers": "16255627.08720772",
                "miles": "10100778.292677736"
            },
            "orbiting_body": "Earth"
        }
    ],
    "orbital_data": {
        "orbit_id": "3",
        "orbit_determination_date": "2020-03-27 05:58:31",
        "first_observation_date": "2020-03-16",
        "last_observation_date": "2020-03-26",
        "data_arc_in_days": 10,
        "observations_used": 22,
        "orbit_uncertainty": "8",
        "minimum_orbit_intersection": ".104264",
        "jupiter_tisserand_invariant": "2.923",
        "epoch_osculation": "2458926.5",
        "eccentricity": ".6310283000814079",
        "semi_major_axis": "2.966999220611543",
        "inclination": "3.728341483235196",
        "ascending_node_longitude": "342.771727122598",
        "orbital_period": "1866.700205218492",
        "perihelion_distance": "1.094738746086179",
        "perihelion_argument": "175.8399117837778",
        "aphelion_distance": "4.839259695136907",
        "perihelion_time": "2458909.610094134953",
        "mean_anomaly": "3.257280464436029",
        "mean_motion": ".1928536778394274",
        "equinox": "J2000",
        "orbit_class": {
            "orbit_class_type": "AMO",
            "orbit_class_description": "Near-Earth asteroid orbits similar to that of 1221 Amor",
            "orbit_class_range": "1.017 AU < q (perihelion) < 1.3 AU"
        }
    },
    "is_sentry_object": false
}